<?xml version='1.0' encoding='UTF-8'?>
<osm version='0.6' upload='false' generator='JOSM'>
  <node id='-178276525' action='modify' lat='51.54491263227' lon='7.18798798213' />
  <node id='-178276526' action='modify' lat='51.55369611113' lon='7.19361840011' />
  <node id='-178276527' action='modify' lat='51.55466493077' lon='7.19415862652'>
    <tag k='name' v='res.a' />
  </node>
  <node id='-178276528' action='modify' lat='51.54746595353' lon='7.18962460947'>
    <tag k='name' v='bau' />
    <tag k='point' v='point.de.Baukau' />
  </node>
  <node id='-178276529' action='modify' lat='51.56001799152' lon='7.19541423331' />
  <node id='-178276530' action='modify' lat='51.61428327741' lon='7.2027756637' />
  <node id='-178276531' action='modify' lat='51.58551456563' lon='7.19890160168'>
    <tag k='name' v='gru' />
    <tag k='point' v='point.de.Grullbad' />
  </node>
  <node id='-178276532' action='modify' lat='51.58392417708' lon='7.19866243346' />
  <node id='-178276533' action='modify' lat='51.60248580795' lon='7.201186692'>
    <tag k='name' v='her' />
    <tag k='point' v='point.de.Hernerstrasse' />
  </node>
  <node id='-178276534' action='modify' lat='51.61617573018' lon='7.20330482618'>
    <tag k='name' v='rec' />
    <tag k='point' v='point.de.Recklinghausen-Hbf' />
  </node>
  <node id='-178276535' action='modify' lat='51.61689211097' lon='7.20364682004' />
  <node id='-178276536' action='modify' lat='51.62284475286' lon='7.20654720376' />
  <node id='-178276537' action='modify' lat='51.62818114307' lon='7.20762475896'>
    <tag k='name' v='rec.f' />
  </node>
  <node id='-178276538' action='modify' lat='51.63190540008' lon='7.20720687459' />
  <node id='-178276539' action='modify' lat='51.64404975931' lon='7.20232524291' />
  <node id='-178276540' action='modify' lat='51.63567371749' lon='7.20607041794' />
  <node id='-178276541' action='modify' lat='51.64078425298' lon='7.20378542926'>
    <tag k='name' v='bor' />
    <tag k='point' v='point.de.Börste' />
  </node>
  <node id='-178276542' action='modify' lat='51.64814488625' lon='7.19879819905' />
  <node id='-178276543' action='modify' lat='51.6757157445' lon='7.16300614727'>
    <tag k='name' v='sin.yz' />
  </node>
  <node id='-178276544' action='modify' lat='51.65341587136' lon='7.19195717314'>
    <tag k='name' v='sil' />
    <tag k='point' v='point.de.Silverbach' />
  </node>
  <node id='-178276545' action='modify' lat='51.66393585841' lon='7.17830127374'>
    <tag k='name' v='grec' />
    <tag k='point' v='point.de.Recklinghausen-DGr' />
  </node>
  <node id='-178276546' action='modify' lat='51.66773979901' lon='7.17336263257'>
    <tag k='name' v='sin' />
    <tag k='point' v='point.de.Marl-Sinsen' />
  </node>
  <node id='-178276547' action='modify' lat='51.67441096949' lon='7.1647004766'>
    <tag k='name' v='gsin' />
    <tag k='point' v='point.de.Marl-Sinsen-DGr' />
  </node>
  <node id='-178276548' action='modify' lat='51.68150556548' lon='7.15828240639' />
  <node id='-178276549' action='modify' lat='51.69399078264' lon='7.15263015724' />
  <node id='-178276550' action='modify' lat='51.68741468226' lon='7.15560745296'>
    <tag k='name' v='lek' />
    <tag k='point' v='point.de.Lenkerbeck' />
  </node>
  <node id='-178276551' action='modify' lat='51.70325747484' lon='7.15188181939'>
    <tag k='name' v='lip.a' />
  </node>
  <node id='-178276552' action='modify' lat='51.70530105146' lon='7.15294040931'>
    <tag k='name' v='lip.yf' />
  </node>
  <node id='-178276553' action='modify' lat='51.71172021799' lon='7.15698836883'>
    <tag k='name' v='lip' />
    <tag k='point' v='point.de.Marl-Lippe' />
  </node>
  <node id='-178276554' action='modify' lat='51.72476986099' lon='7.16521931242'>
    <tag k='name' v='ann' />
    <tag k='point' v='point.de.Annaberg-Haltern' />
  </node>
  <node id='-178276555' action='modify' lat='51.7338695832' lon='7.1756981116'>
    <tag k='name' v='hal.yw' />
  </node>
  <node id='-178276556' action='modify' lat='51.73758140005' lon='7.18410502075'>
    <tag k='name' v='hal' />
    <tag k='point' v='point.de.Haltern-am-See' />
  </node>
  <node id='-178276557' action='modify' lat='51.74641183092' lon='7.19994117799' />
  <node id='-178276558' action='modify' lat='51.7566477733' lon='7.20932748887' />
  <node id='-178276559' action='modify' lat='51.757421549' lon='7.21005864815' />
  <node id='-178276560' action='modify' lat='51.74894132757' lon='7.20226051661'>
    <tag k='name' v='ste' />
    <tag k='point' v='point.de.Stever' />
  </node>
  <node id='-178276561' action='modify' lat='51.75819070188' lon='7.21081585616' />
  <node id='-178276562' action='modify' lat='51.7589717506' lon='7.21154701544' />
  <node id='-178276563' action='modify' lat='51.75972358847' lon='7.21236858689' />
  <node id='-178276564' action='modify' lat='51.76045351618' lon='7.21320195124' />
  <node id='-178276565' action='modify' lat='51.82194739472' lon='7.28551314447' />
  <node id='-178276566' action='modify' lat='51.7666029341' lon='7.22042867133'>
    <tag k='name' v='uph' />
    <tag k='point' v='point.de.Uphusen' />
  </node>
  <node id='-178276567' action='modify' lat='51.7714455363' lon='7.22612033061'>
    <tag k='name' v='syt' />
    <tag k='point' v='point.de.Sythen' />
  </node>
  <node id='-178276568' action='modify' lat='51.78738553627' lon='7.2448594173'>
    <tag k='name' v='syb' />
    <tag k='point' v='point.de.Sythen-Bbf' />
  </node>
  <node id='-178276569' action='modify' lat='51.80820407528' lon='7.26934369628'>
    <tag k='name' v='muh' />
    <tag k='point' v='point.de.Mühlbach-Dülmen' />
  </node>
  <node id='-178276570' action='modify' lat='51.82397649045' lon='7.2885680707' />
  <node id='-178276571' action='modify' lat='51.85827866749' lon='7.35470527922' />
  <node id='-178276572' action='modify' lat='51.82747225107' lon='7.29530585786'>
    <tag k='name' v='dul' />
    <tag k='point' v='point.de.Dülmen' />
  </node>
  <node id='-178276573' action='modify' lat='51.83544287131' lon='7.31067051955'>
    <tag k='name' v='wyn' />
    <tag k='point' v='point.de.Wynheck' />
  </node>
  <node id='-178276574' action='modify' lat='51.84181853111' lon='7.32296259453'>
    <tag k='name' v='mit' />
    <tag k='point' v='point.de.Mitwick' />
  </node>
  <node id='-178276575' action='modify' lat='51.85340706473' lon='7.34530938742'>
    <tag k='name' v='rho' />
    <tag k='point' v='point.de.Rhoder' />
  </node>
  <node id='-178276576' action='modify' lat='51.86128142262' lon='7.3631171392' />
  <node id='-178276577' action='modify' lat='51.86462755687' lon='7.37721235014' />
  <node id='-178276578' action='modify' lat='51.86298227177' lon='7.37028164227'>
    <tag k='name' v='bul' />
    <tag k='point' v='point.de.Buldern' />
  </node>
  <node id='-178276579' action='modify' lat='51.86846112623' lon='7.3853971073' />
  <node id='-178276580' action='modify' lat='51.88399318184' lon='7.40674042601' />
  <node id='-178276581' action='modify' lat='51.87506853321' lon='7.39447575094'>
    <tag k='name' v='han' />
    <tag k='point' v='point.de.Hangenau' />
  </node>
  <node id='-178276582' action='modify' lat='51.88692706016' lon='7.41237720724' />
  <node id='-178276583' action='modify' lat='51.89782690401' lon='7.44159450154' />
  <node id='-178276584' action='modify' lat='51.89212286325' lon='7.42630379881'>
    <tag k='name' v='app' />
    <tag k='point' v='point.de.Nottuln-Appelhülsen' />
  </node>
  <node id='-178276585' action='modify' lat='51.89927151541' lon='7.44676523217' />
  <node id='-178276586' action='modify' lat='51.91266352862' lon='7.51799649781' />
  <node id='-178276587' action='modify' lat='51.91164634203' lon='7.51243788302' />
  <node id='-178276588' action='modify' lat='51.90384279025' lon='7.47079092477' />
  <node id='-178276589' action='modify' lat='51.90423255329' lon='7.47288884747' />
  <node id='-178276590' action='modify' lat='51.90101734773' lon='7.45594068391'>
    <tag k='name' v='kly' />
    <tag k='point' v='point.de.Kley' />
  </node>
  <node id='-178276591' action='modify' lat='51.90688041699' lon='7.48701319108'>
    <tag k='name' v='bos' />
    <tag k='point' v='point.de.Bösensell' />
  </node>
  <node id='-178276592' action='modify' lat='51.92181977667' lon='7.56749543918' />
  <node id='-178276593' action='modify' lat='51.9222483463' lon='7.56990814172' />
  <node id='-178276594' action='modify' lat='51.91436893945' lon='7.52721523305'>
    <tag k='name' v='alb' />
    <tag k='point' v='point.de.Münster-Albachten' />
  </node>
  <node id='-178276595' action='modify' lat='51.92398710283' lon='7.57976019022'>
    <tag k='name' v='mec' />
    <tag k='point' v='point.de.Mecklenbeck' />
  </node>
  <node id='-178276596' action='modify' lat='51.92858602205' lon='7.60582017811'>
    <tag k='name' v='loo' />
    <tag k='point' v='point.de.Looz' />
  </node>
  <node id='-178276597' action='modify' lat='51.93006669338' lon='7.61421103878'>
    <tag k='name' v='geb' />
    <tag k='point' v='point.de.Geist-Bk' />
  </node>
  <node id='-178276598' action='modify' lat='51.94631559249' lon='7.63383908827' />
  <node id='-178276599' action='modify' lat='51.95013065307' lon='7.63503929351' />
  <node id='-178276600' action='modify' lat='51.95098590681' lon='7.63522404881' />
  <node id='-178276601' action='modify' lat='51.94927837459' lon='7.63477116071'>
    <tag k='name' v='mug' />
    <tag k='point' v='point.de.Münster-Westf-Gbf' />
  </node>
  <node id='-178276602' action='modify' lat='51.95215434581' lon='7.63537431146' />
  <node id='-178276603' action='modify' lat='51.9526921884' lon='7.63541755207' />
  <node id='-178276604' action='modify' lat='51.95319852981' lon='7.6354136211' />
  <node id='-178276605' action='modify' lat='51.95407142612' lon='7.6353876169' />
  <node id='-178276606' action='modify' lat='51.95503415258' lon='7.63545432757' />
  <node id='-178276607' action='modify' lat='51.95563370488' lon='7.63560442657' />
  <node id='-178276608' action='modify' lat='51.95806266615' lon='7.63629932938' />
  <node id='-178276609' action='modify' lat='51.95449764498' lon='7.63540132564' />
  <node id='-178276610' action='modify' lat='51.95652776768' lon='7.63586020509'>
    <tag k='name' v='mun' />
    <tag k='point' v='point.de.Münster-Westf-Hbf point.de.Münster-Westf-Pbf' />
  </node>
  <node id='-178276611' action='modify' lat='51.97088789697' lon='7.64845150532'>
    <tag k='name' v='bol' />
    <tag k='point' v='point.de.Bohlweg' />
  </node>
  <node id='-178276612' action='modify' lat='51.97174607313' lon='7.64933530368' />
  <node id='-178276613' action='modify' lat='51.96726122337' lon='7.64453783414'>
    <tag k='name' v='muf' />
    <tag k='point' v='point.de.Münster-Westf-Fehlstelle' />
  </node>
  <node id='-178276614' action='modify' lat='51.97274506386' lon='7.65060600816' />
  <node id='-178276615' action='modify' lat='51.97379118988' lon='7.65197005263' />
  <node id='-178276616' action='modify' lat='51.97483971297' lon='7.65340878541' />
  <node id='-178276617' action='modify' lat='51.97582767532' lon='7.65488682783' />
  <node id='-178276618' action='modify' lat='51.97834521672' lon='7.65889203701' />
  <node id='-178276619' action='modify' lat='52.02225671055' lon='7.72898351525' />
  <node id='-178276620' action='modify' lat='52.02322139313' lon='7.73054009753' />
  <node id='-178276621' action='modify' lat='52.00264246465' lon='7.69794874772' />
  <node id='-178276622' action='modify' lat='52.00111813729' lon='7.69553710804' />
  <node id='-178276623' action='modify' lat='51.97885686233' lon='7.65971514752'>
    <tag k='name' v='sle' />
    <tag k='point' v='point.de.Schleuse-Münster' />
  </node>
  <node id='-178276624' action='modify' lat='51.98824482539' lon='7.6748197139'>
    <tag k='name' v='sud' />
    <tag k='point' v='point.de.Sudmühle' />
  </node>
  <node id='-178276625' action='modify' lat='51.99841127831' lon='7.69118038677'>
    <tag k='name' v='wer' />
    <tag k='point' v='point.de.Werse' />
  </node>
  <node id='-178276626' action='modify' lat='52.01285554616' lon='7.71410676437'>
    <tag k='name' v='ems' />
    <tag k='point' v='point.de.Münster-Ems' />
  </node>
  <node id='-178276627' action='modify' lat='52.06644668832' lon='7.8036089854' />
  <node id='-178276628' action='modify' lat='52.03097887542' lon='7.74364829592'>
    <tag k='name' v='wbe' />
    <tag k='point' v='point.de.Westbevern' />
  </node>
  <node id='-178276629' action='modify' lat='52.05166444626' lon='7.77861284055'>
    <tag k='name' v='hei' />
    <tag k='point' v='point.de.Heide-Münster' />
  </node>
  <node id='-178276630' action='modify' lat='52.06836138877' lon='7.80661505092' />
  <node id='-178276631' action='modify' lat='52.09172303058' lon='7.84176284037' />
  <node id='-178276632' action='modify' lat='52.070172413' lon='7.80933909469'>
    <tag k='name' v='bro' />
    <tag k='point' v='point.de.Ostbevern' />
  </node>
  <node id='-178276633' action='modify' lat='52.08282403117' lon='7.82837205064'>
    <tag k='name' v='woe' />
    <tag k='point' v='point.de.Woeste' />
  </node>
  <node id='-178276634' action='modify' lat='52.10098939484' lon='7.85167166048' />
  <node id='-178276635' action='modify' lat='52.15460296738' lon='7.8891408824'>
    <tag k='name' v='hoh' />
    <tag k='point' v='point.de.Hohne' />
  </node>
  <node id='-178276636' action='modify' lat='52.15377525671' lon='7.88856541613' />
  <node id='-178276637' action='modify' lat='52.11333966865' lon='7.86029975303'>
    <tag k='name' v='kat' />
    <tag k='point' v='point.de.Kattenvenne' />
  </node>
  <node id='-178276638' action='modify' lat='52.13764854746' lon='7.87728929709'>
    <tag k='name' v='rin' />
    <tag k='point' v='point.de.Ringel' />
  </node>
  <node id='-178276639' action='modify' lat='52.16853374135' lon='7.88827098987' />
  <node id='-178276640' action='modify' lat='52.16703560826' lon='7.88929626892' />
  <node id='-178276641' action='modify' lat='52.17203717504' lon='7.8845223353'>
    <tag k='name' v='len.xa' />
  </node>
  <node id='-178276642' action='modify' lat='52.17575168105' lon='7.87838357846'>
    <tag k='name' v='len' />
    <tag k='point' v='point.de.Lengerich-Westf' />
  </node>
  <node id='-178276643' action='modify' lat='52.18802828687' lon='7.87118048959'>
    <tag k='name' v='tun' />
    <tag k='point' v='point.de.Tunnel-Lengerich' />
  </node>
  <node id='-178276644' action='modify' lat='52.18950075076' lon='7.87303197357'>
    <tag k='name' v='tale' />
  </node>
  <node id='-178276645' action='modify' lat='52.19333261115' lon='7.87867247677'>
    <tag k='name' v='tfle' />
  </node>
  <node id='-178276646' action='modify' lat='52.19378732842' lon='7.87950619649' />
  <node id='-178276647' action='modify' lat='52.19425100316' lon='7.88054315512' />
  <node id='-178276648' action='modify' lat='52.20097522792' lon='7.90033513533' />
  <node id='-178276649' action='modify' lat='52.19457812013' lon='7.88144379416' />
  <node id='-178276650' action='modify' lat='52.19733676507' lon='7.88959003326'>
    <tag k='name' v='sol' />
    <tag k='point' v='point.de.Schollbruch' />
  </node>
  <node id='-178276651' action='modify' lat='52.19917024207' lon='7.89500454436'>
    <tag k='name' v='gnad' />
    <tag k='point' v='point.de.Natrup-Hagen-DGr' />
  </node>
  <node id='-178276652' action='modify' lat='51.51367025022' lon='7.13671444774' />
  <node id='-178276653' action='modify' lat='51.53008641436' lon='7.1669984797'>
    <tag k='name' v='wan' />
  </node>
  <node id='-178276654' action='modify' lat='51.54315904079' lon='7.21477745891' />
  <node id='-178276655' action='modify' lat='51.53772204886' lon='7.18426624786'>
    <tag k='name' v='wan.wof' />
  </node>
  <node id='-178276656' action='modify' lat='51.53597203562' lon='7.17785875115'>
    <tag k='name' v='wan.v' />
  </node>
  <node id='-178276657' action='modify' lat='51.53726057483' lon='7.18167672425' />
  <node id='-178276658' action='modify' lat='51.54154063835' lon='7.18582674288' />
  <node id='-178276659' action='modify' lat='51.538269001' lon='7.1820975407' />
  <node id='-178276660' action='modify' lat='51.52389127529' lon='7.15556859614'>
    <tag k='name' v='wan.h' />
  </node>
  <node id='-178276661' action='modify' lat='51.57732165406' lon='7.19771331891'>
    <tag k='name' v='res.f' />
  </node>
  <node id='-178276662' action='modify' lat='51.56242058029' lon='7.19557179197'>
    <tag k='name' v='res' />
  </node>
  <node id='-178276663' action='modify' lat='51.56106294283' lon='7.19546824941'>
    <tag k='name' v='res.ye' />
  </node>
  <node id='-178276664' action='modify' lat='51.5712942882' lon='7.19684700375'>
    <tag k='name' v='res.xf' />
  </node>
  <node id='-178276665' action='modify' lat='51.60993798781' lon='7.20219035946'>
    <tag k='name' v='rec.a' />
  </node>
  <node id='-178276666' action='modify' lat='51.62201522513' lon='7.20614299927'>
    <tag k='name' v='rec.rhf' />
  </node>
  <node id='-178276667' action='modify' lat='51.60518459444' lon='7.21191554993' />
  <node id='-178276668' action='modify' lat='51.6108238183' lon='7.2043895038'>
    <tag k='name' v='rec.b' />
  </node>
  <node id='-178276669' action='modify' lat='51.61372032272' lon='7.20269983136'>
    <tag k='name' v='rec.yo' />
  </node>
  <node id='-178276670' action='modify' lat='51.65728635566' lon='7.18693330132'>
    <tag k='name' v='sin.a' />
  </node>
  <node id='-178276671' action='modify' lat='51.67216128666' lon='7.16762171129'>
    <tag k='name' v='sin.f' />
  </node>
  <node id='-178276672' action='modify' lat='51.67543271634' lon='7.1555167383' />
  <node id='-178276673' action='modify' lat='51.66859778188' lon='7.14516037289' />
  <node id='-178276674' action='modify' lat='51.66931804962' lon='7.14747217781' />
  <node id='-178276675' action='modify' lat='51.67277804476' lon='7.11716114938'>
    <tag k='name' v='yu' />
  </node>
  <node id='-178276676' action='modify' lat='51.68884009238' lon='7.10696338534' />
  <node id='-178276677' action='modify' lat='51.67007154768' lon='7.1217001466'>
    <tag k='name' v='yt' />
  </node>
  <node id='-178276678' action='modify' lat='51.66841281144' lon='7.1384804154' />
  <node id='-178276679' action='modify' lat='51.66874273607' lon='7.13637561239' />
  <node id='-178276680' action='modify' lat='51.66910214118' lon='7.13478080456' />
  <node id='-178276681' action='modify' lat='51.66879246766' lon='7.13624175257' />
  <node id='-178276682' action='modify' lat='51.67057626742' lon='7.14912742201'>
    <tag k='name' v='xr' />
  </node>
  <node id='-178276683' action='modify' lat='51.66843016066' lon='7.13910695792'>
    <tag k='name' v='xs' />
  </node>
  <node id='-178276684' action='modify' lat='51.6950850857' lon='7.15216934144'>
    <tag k='name' v='lek.alt' />
  </node>
  <node id='-178276685' action='modify' lat='51.628149' lon='7.073669' />
  <node id='-178276686' action='modify' lat='51.632625' lon='7.078501' />
  <node id='-178276687' action='modify' lat='51.638681' lon='7.084727' />
  <node id='-178276688' action='modify' lat='51.653818' lon='7.0996' />
  <node id='-178276689' action='modify' lat='51.655523' lon='7.101374' />
  <node id='-178276690' action='modify' lat='51.65393473089' lon='7.09976432562' />
  <node id='-178276691' action='modify' lat='51.665879' lon='7.112863' />
  <node id='-178276692' action='modify' lat='51.675797' lon='7.122794' />
  <node id='-178276693' action='modify' lat='51.668916' lon='7.115955' />
  <node id='-178276694' action='modify' lat='51.678015' lon='7.125257' />
  <node id='-178276695' action='modify' lat='51.685823' lon='7.135011' />
  <node id='-178276696' action='modify' lat='51.691036' lon='7.140824' />
  <node id='-178276697' action='modify' lat='51.695105' lon='7.145641'>
    <tag k='name' v='lip.yb' />
  </node>
  <node id='-178276698' action='modify' lat='51.69389898102' lon='7.14421323466'>
    <tag k='name' v='lip.b' />
  </node>
  <node id='-178276699' action='modify' lat='51.72790735561' lon='7.16727584152'>
    <tag k='name' v='hal.a' />
  </node>
  <node id='-178276700' action='modify' lat='51.74194215725' lon='7.1939825998'>
    <tag k='name' v='hal.f' />
  </node>
  <node id='-178276701' action='modify' lat='51.72311930126' lon='7.1513536491' />
  <node id='-178276702' action='modify' lat='51.7294479615' lon='7.16568446361'>
    <tag k='name' v='hal.b' />
  </node>
  <node id='-178276703' action='modify' lat='51.73856088941' lon='7.18632358536'>
    <tag k='name' v='hal.hf' />
  </node>
  <node id='-178276704' action='modify' lat='51.77826771993' lon='7.23413968909'>
    <tag k='name' v='syb.a' />
  </node>
  <node id='-178276705' action='modify' lat='51.79056788737' lon='7.24860138672'>
    <tag k='name' v='syb.f' />
  </node>
  <node id='-178276706' action='modify' lat='51.81941539676' lon='7.28253379852'>
    <tag k='name' v='dul.a' />
  </node>
  <node id='-178276707' action='modify' lat='51.83245678152' lon='7.30491402921'>
    <tag k='name' v='dul.f' />
  </node>
  <node id='-178276708' action='modify' lat='51.82562992909' lon='7.29175487067'>
    <tag k='name' v='dul.alt' />
  </node>
  <node id='-178276709' action='modify' lat='51.82099454696' lon='7.30734586179' />
  <node id='-178276710' action='modify' lat='51.82548533511' lon='7.29958861083'>
    <tag k='name' v='dul.b' />
  </node>
  <node id='-178276711' action='modify' lat='51.83607253716' lon='7.26526736677' />
  <node id='-178276712' action='modify' lat='51.83606138234' lon='7.28068913527'>
    <tag k='name' v='dul.g' />
  </node>
  <node id='-178276713' action='modify' lat='51.83669519909' lon='7.27533860531' />
  <node id='-178276714' action='modify' lat='51.83509509937' lon='7.28298639765' />
  <node id='-178276715' action='modify' lat='51.8284892611' lon='7.29439928869'>
    <tag k='name' v='dul' />
  </node>
  <node id='-178276716' action='modify' lat='51.82770490779' lon='7.29575430286'>
    <tag k='name' v='dul.x' />
  </node>
  <node id='-178276717' action='modify' lat='51.8865386974' lon='7.41138344889'>
    <tag k='name' v='app.a' />
  </node>
  <node id='-178276718' action='modify' lat='51.8954300831' lon='7.43516915742'>
    <tag k='name' v='app.f' />
  </node>
  <node id='-178276719' action='modify' lat='51.9033855049' lon='7.46838741576'>
    <tag k='name' v='bos.a' />
  </node>
  <node id='-178276720' action='modify' lat='51.90837574077' lon='7.49498997666'>
    <tag k='name' v='bos.f' />
  </node>
  <node id='-178276721' action='modify' lat='51.92139719289' lon='7.56521071685'>
    <tag k='name' v='mec.b' />
  </node>
  <node id='-178276722' action='modify' lat='51.9374213978' lon='7.53991819851' />
  <node id='-178276723' action='modify' lat='51.92266466916' lon='7.5722670531' />
  <node id='-178276724' action='modify' lat='51.92395579284' lon='7.56943715034'>
    <tag k='name' v='mec.a' />
  </node>
  <node id='-178276725' action='modify' lat='51.92326187578' lon='7.5756509014'>
    <tag k='name' v='mec.yc' />
  </node>
  <node id='-178276726' action='modify' lat='51.92671082633' lon='7.59519397262'>
    <tag k='name' v='mec.g' />
  </node>
  <node id='-178276727' action='modify' lat='51.92608385108' lon='7.59784519136'>
    <tag k='name' v='mec.f' />
  </node>
  <node id='-178276728' action='modify' lat='51.92651443836' lon='7.59408112304' />
  <node id='-178276729' action='modify' lat='51.9260540414' lon='7.59147226259'>
    <tag k='name' v='mec.ys' />
  </node>
  <node id='-178276730' action='modify' lat='51.94938770153' lon='7.63381767698'>
    <tag k='name' v='mug' />
  </node>
  <node id='-178276731' action='modify' lat='51.93099246318' lon='7.61945745201' />
  <node id='-178276732' action='modify' lat='51.9313885209' lon='7.62139339701'>
    <tag k='name' v='gei' />
  </node>
  <node id='-178276733' action='modify' lat='51.94000713355' lon='7.63113471234' />
  <node id='-178276734' action='modify' lat='51.92891070129' lon='7.60766008887'>
    <tag k='name' v='gei.a' />
  </node>
  <node id='-178276735' action='modify' lat='51.96155471106' lon='7.63838037694' />
  <node id='-178276736' action='modify' lat='51.96440290332' lon='7.64145354349'>
    <tag k='name' v='mun.f' />
  </node>
  <node id='-178276737' action='modify' lat='51.9601577023' lon='7.63728260508'>
    <tag k='name' v='mun.mn' />
  </node>
  <node id='-178276738' action='modify' lat='51.952823477' lon='7.63480049394'>
    <tag k='name' v='mun.xg' />
  </node>
  <node id='-178276739' action='modify' lat='51.92120245853' lon='7.63307600945' />
  <node id='-178276740' action='modify' lat='51.9308863778' lon='7.6283279554'>
    <tag k='name' v='mun.aa' />
  </node>
  <node id='-178276741' action='modify' lat='51.96628670424' lon='7.64348625022'>
    <tag k='name' v='mun.yn' />
  </node>
  <node id='-178276742' action='modify' lat='51.94128230407' lon='7.63149939477'>
    <tag k='name' v='mug.mr' />
  </node>
  <node id='-178276743' action='modify' lat='51.93563558525' lon='7.62988458422'>
    <tag k='name' v='mun.a' />
  </node>
  <node id='-178276744' action='modify' lat='51.94566295425' lon='7.63275228357'>
    <tag k='name' v='mug.xr' />
  </node>
  <node id='-178276745' action='modify' lat='51.93326392134' lon='7.63233044988' />
  <node id='-178276746' action='modify' lat='51.93133728784' lon='7.62141162922'>
    <tag k='name' v='gei' />
  </node>
  <node id='-178276747' action='modify' lat='51.93206549587' lon='7.62553855155'>
    <tag k='name' v='gei.ym' />
  </node>
  <node id='-178276748' action='modify' lat='51.92511290681' lon='7.61299431056' />
  <node id='-178276749' action='modify' lat='51.93331633267' lon='7.62632775195' />
  <node id='-178276750' action='modify' lat='51.93287692366' lon='7.62561349656'>
    <tag k='name' v='gei.ym' />
  </node>
  <node id='-178276751' action='modify' lat='51.9300759567' lon='7.62106071439'>
    <tag k='name' v='gei.c' />
  </node>
  <node id='-178276752' action='modify' lat='51.98695748067' lon='7.67274828029'>
    <tag k='name' v='sud.a' />
  </node>
  <node id='-178276753' action='modify' lat='51.99751799797' lon='7.6897426994'>
    <tag k='name' v='sud.f' />
  </node>
  <node id='-178276754' action='modify' lat='51.92399120831' lon='7.61613794985' />
  <node id='-178276755' action='modify' lat='51.92385755123' lon='7.61785769673' />
  <node id='-178276756' action='modify' lat='51.92392509387' lon='7.63807552821' />
  <node id='-178276757' action='modify' lat='51.92332131235' lon='7.63075800602' />
  <node id='-178276758' action='modify' lat='51.9254476273' lon='7.64520632728' />
  <node id='-178276759' action='modify' lat='51.9259131268' lon='7.6472253621' />
  <node id='-178276760' action='modify' lat='51.92763103652' lon='7.65271811998' />
  <node id='-178276761' action='modify' lat='51.92652592355' lon='7.64969717098' />
  <node id='-178276762' action='modify' lat='51.93062447634' lon='7.65861680502' />
  <node id='-178276763' action='modify' lat='51.93120578919' lon='7.65971405972' />
  <node id='-178276764' action='modify' lat='51.93573736543' lon='7.66710751594' />
  <node id='-178276765' action='modify' lat='51.93398368044' lon='7.66473580281' />
  <node id='-178276766' action='modify' lat='51.94637282022' lon='7.67684601669' />
  <node id='-178276767' action='modify' lat='51.94269603861' lon='7.67403611656' />
  <node id='-178276768' action='modify' lat='51.95520236116' lon='7.68131956324' />
  <node id='-178276769' action='modify' lat='51.95232363639' lon='7.68015282494' />
  <node id='-178276770' action='modify' lat='51.95368323021' lon='7.68077306251' />
  <node id='-178276771' action='modify' lat='51.983734' lon='7.674302' />
  <node id='-178276772' action='modify' lat='51.96802970111' lon='7.68359239076' />
  <node id='-178276773' action='modify' lat='51.96300857618' lon='7.68412810713' />
  <node id='-178276774' action='modify' lat='51.98883043093' lon='7.67576201657'>
    <tag k='name' v='sud.yk' />
  </node>
  <node id='-178276775' action='modify' lat='51.98529824263' lon='7.67383078058'>
    <tag k='name' v='sud.b' />
  </node>
  <node id='-178276776' action='modify' lat='52.00728784618' lon='7.70529770336'>
    <tag k='name' v='ems.a' />
  </node>
  <node id='-178276777' action='modify' lat='52.01810453543' lon='7.72241257401'>
    <tag k='name' v='ems.f' />
  </node>
  <node id='-178276778' action='modify' lat='52.0613813336' lon='7.79504275359'>
    <tag k='name' v='bro.a' />
  </node>
  <node id='-178276779' action='modify' lat='52.07430059133' lon='7.81554888815'>
    <tag k='name' v='bro.f' />
  </node>
  <node id='-178276780' action='modify' lat='52.10279660626' lon='7.85293405713'>
    <tag k='name' v='kat.a' />
  </node>
  <node id='-178276781' action='modify' lat='52.11917761926' lon='7.8643790677'>
    <tag k='name' v='kat.f' />
  </node>
  <node id='-178276782' action='modify' lat='52.12786284108' lon='7.87044892474'>
    <tag k='name' v='rin.a' />
  </node>
  <node id='-178276783' action='modify' lat='52.14150317128' lon='7.87998415613'>
    <tag k='name' v='rin.f' />
  </node>
  <node id='-178276784' action='modify' lat='52.18314881367' lon='7.86990164638' />
  <node id='-178276785' action='modify' lat='52.16926761245' lon='7.88773975344'>
    <tag k='name' v='len.a' />
  </node>
  <node id='-178276786' action='modify' lat='52.1811924344' lon='7.87099634881'>
    <tag k='name' v='len.f' />
  </node>
  <node id='-178276787' action='modify' lat='52.1782426369' lon='7.87426662754'>
    <tag k='name' v='len.xf' />
  </node>
  <node id='-178276788' action='modify' lat='51.90828402762' lon='6.10692668806' />
  <node id='-178276790' action='modify' lat='51.90125173988' lon='6.13767779415'>
    <tag k='name' v='emg' />
  </node>
  <node id='-178276791' action='modify' lat='51.89359762824' lon='6.14452815771'>
    <tag k='name' v='emg.aa' />
  </node>
  <node id='-178276792' action='modify' lat='51.86198459323' lon='6.16724498931' />
  <node id='-178276793' action='modify' lat='51.86941118316' lon='6.15661527765' />
  <node id='-178276794' action='modify' lat='51.85228826326' lon='6.20140616524' />
  <node id='-178276795' action='modify' lat='51.85359547972' lon='6.19746956791' />
  <node id='-178276796' action='modify' lat='51.83669914537' lon='6.24128217991'>
    <tag k='name' v='emm.f' />
  </node>
  <node id='-178276797' action='modify' lat='51.83515965799' lon='6.24767384242' />
  <node id='-178276798' action='modify' lat='51.81371689543' lon='6.38839624755' />
  <node id='-178276799' action='modify' lat='51.82782765004' lon='6.31326629873' />
  <node id='-178276800' action='modify' lat='51.82730600691' lon='6.31674067539' />
  <node id='-178276801' action='modify' lat='51.82214914404' lon='6.34393542907'>
    <tag k='name' v='pra' />
  </node>
  <node id='-178276802' action='modify' lat='51.83426796783' lon='6.25565151111'>
    <tag k='name' v='emm' />
  </node>
  <node id='-178276803' action='modify' lat='51.87433080758' lon='6.15415723351'>
    <tag k='name' v='elt' />
  </node>
  <node id='-178276804' action='modify' lat='51.83225144006' lon='6.2736921621'>
    <tag k='name' v='emm.a' />
  </node>
  <node id='-178276805' action='modify' lat='51.86121715728' lon='6.1700101674'>
    <tag k='name' v='elt.el' />
  </node>
  <node id='-178276806' action='modify' lat='51.84172052067' lon='6.17237982988'>
    <tag k='name' v='wel.a' />
  </node>
  <node id='-178276807' action='modify' lat='51.85206998525' lon='6.1755394721' />
  <node id='-178276808' action='modify' lat='51.85755692034' lon='6.17361901045' />
  <node id='-178276809' action='modify' lat='51.86057842499' lon='6.16984246016'>
    <tag k='name' v='elt.yyw' />
  </node>
  <node id='-178276810' action='modify' lat='51.86179512124' lon='6.16792768753'>
    <tag k='name' v='elt.yw' />
  </node>
  <node id='-178276811' action='modify' lat='51.84638343458' lon='6.17380330536'>
    <tag k='name' v='wel' />
  </node>
  <node id='-178276812' action='modify' lat='51.84895274947' lon='6.17458771841'>
    <tag k='name' v='wel.f' />
  </node>
  <node id='-178276825' action='modify' lat='51.90624813833' lon='6.12809389561' />
  <node id='-178276827' action='modify' lat='51.91417553275' lon='6.10605418414' />
  <way id='-38587268' action='modify'>
    <nd ref='-178276658' />
    <nd ref='-178276525' />
    <nd ref='-178276528' />
    <nd ref='-178276526' />
    <tag k='type' v='straight' />
  </way>
  <way id='-38587269' action='modify'>
    <nd ref='-178276526' />
    <nd ref='-178276527' />
    <nd ref='-178276529' />
  </way>
  <way id='-38587270' action='modify'>
    <nd ref='-178276529' />
    <nd ref='-178276663' />
    <tag k='type' v='straight' />
  </way>
  <way id='-38587271' action='modify'>
    <nd ref='-178276662' />
    <nd ref='-178276664' />
    <nd ref='-178276661' />
    <nd ref='-178276532' />
    <tag k='type' v='straight' />
  </way>
  <way id='-38587272' action='modify'>
    <nd ref='-178276532' />
    <nd ref='-178276531' />
  </way>
  <way id='-38587273' action='modify'>
    <nd ref='-178276531' />
    <nd ref='-178276533' />
    <nd ref='-178276665' />
    <nd ref='-178276669' />
    <tag k='type' v='straight' />
  </way>
  <way id='-38587274' action='modify'>
    <nd ref='-178276530' />
    <nd ref='-178276534' />
    <nd ref='-178276535' />
  </way>
  <way id='-38587275' action='modify'>
    <nd ref='-178276535' />
    <nd ref='-178276666' />
    <nd ref='-178276536' />
    <tag k='type' v='straight' />
  </way>
  <way id='-38587276' action='modify'>
    <nd ref='-178276536' />
    <nd ref='-178276537' />
  </way>
  <way id='-38587277' action='modify'>
    <nd ref='-178276537' />
    <nd ref='-178276538' />
    <tag k='type' v='straight' />
  </way>
  <way id='-38587278' action='modify'>
    <nd ref='-178276538' />
    <nd ref='-178276540' />
  </way>
  <way id='-38587279' action='modify'>
    <nd ref='-178276540' />
    <nd ref='-178276541' />
    <nd ref='-178276539' />
    <tag k='type' v='straight' />
  </way>
  <way id='-38587280' action='modify'>
    <nd ref='-178276539' />
    <nd ref='-178276542' />
  </way>
  <way id='-38587281' action='modify'>
    <nd ref='-178276670' />
    <nd ref='-178276545' />
    <nd ref='-178276546' />
    <nd ref='-178276671' />
    <nd ref='-178276547' />
    <nd ref='-178276543' />
    <tag k='type' v='straight' />
  </way>
  <way id='-38587282' action='modify'>
    <nd ref='-178276543' />
    <nd ref='-178276548' />
  </way>
  <way id='-38587283' action='modify'>
    <nd ref='-178276548' />
    <nd ref='-178276550' />
    <nd ref='-178276549' />
    <tag k='type' v='straight' />
  </way>
  <way id='-38587284' action='modify'>
    <nd ref='-178276552' />
    <nd ref='-178276553' />
    <nd ref='-178276554' />
    <tag k='type' v='straight' />
  </way>
  <way id='-38587285' action='modify'>
    <nd ref='-178276555' />
    <nd ref='-178276556' />
    <nd ref='-178276703' />
    <nd ref='-178276700' />
    <tag k='type' v='straight' />
  </way>
  <way id='-38587286' action='modify'>
    <nd ref='-178276557' />
    <nd ref='-178276560' />
    <nd ref='-178276558' />
    <tag k='type' v='straight' />
  </way>
  <way id='-38587287' action='modify'>
    <nd ref='-178276558' />
    <nd ref='-178276559' />
    <nd ref='-178276561' />
    <nd ref='-178276562' />
    <nd ref='-178276563' />
    <nd ref='-178276564' />
  </way>
  <way id='-38587288' action='modify'>
    <nd ref='-178276564' />
    <nd ref='-178276566' />
    <nd ref='-178276567' />
    <nd ref='-178276704' />
    <nd ref='-178276568' />
    <nd ref='-178276705' />
    <nd ref='-178276569' />
    <nd ref='-178276706' />
    <nd ref='-178276565' />
    <tag k='type' v='straight' />
  </way>
  <way id='-38587289' action='modify'>
    <nd ref='-178276565' />
    <nd ref='-178276570' />
  </way>
  <way id='-38587290' action='modify'>
    <nd ref='-178276570' />
    <nd ref='-178276708' />
    <nd ref='-178276572' />
    <nd ref='-178276716' />
    <nd ref='-178276707' />
    <nd ref='-178276573' />
    <nd ref='-178276574' />
    <nd ref='-178276575' />
    <nd ref='-178276571' />
    <tag k='type' v='straight' />
  </way>
  <way id='-38587291' action='modify'>
    <nd ref='-178276571' />
    <nd ref='-178276576' />
  </way>
  <way id='-38587292' action='modify'>
    <nd ref='-178276576' />
    <nd ref='-178276578' />
    <nd ref='-178276577' />
    <tag k='type' v='straight' />
  </way>
  <way id='-38587293' action='modify'>
    <nd ref='-178276577' />
    <nd ref='-178276579' />
  </way>
  <way id='-38587294' action='modify'>
    <nd ref='-178276579' />
    <nd ref='-178276581' />
    <nd ref='-178276580' />
    <tag k='type' v='straight' />
  </way>
  <way id='-38587295' action='modify'>
    <nd ref='-178276580' />
    <nd ref='-178276717' />
    <nd ref='-178276582' />
  </way>
  <way id='-38587296' action='modify'>
    <nd ref='-178276582' />
    <nd ref='-178276584' />
    <nd ref='-178276718' />
    <nd ref='-178276583' />
    <tag k='type' v='straight' />
  </way>
  <way id='-38587297' action='modify'>
    <nd ref='-178276583' />
    <nd ref='-178276585' />
  </way>
  <way id='-38587298' action='modify'>
    <nd ref='-178276585' />
    <nd ref='-178276590' />
    <nd ref='-178276719' />
    <nd ref='-178276588' />
    <tag k='type' v='straight' />
  </way>
  <way id='-38587299' action='modify'>
    <nd ref='-178276588' />
    <nd ref='-178276589' />
  </way>
  <way id='-38587300' action='modify'>
    <nd ref='-178276589' />
    <nd ref='-178276591' />
    <nd ref='-178276720' />
    <nd ref='-178276587' />
    <tag k='type' v='straight' />
  </way>
  <way id='-38587301' action='modify'>
    <nd ref='-178276587' />
    <nd ref='-178276586' />
  </way>
  <way id='-38587302' action='modify'>
    <nd ref='-178276586' />
    <nd ref='-178276594' />
    <nd ref='-178276721' />
    <nd ref='-178276592' />
    <tag k='type' v='straight' />
  </way>
  <way id='-38587303' action='modify'>
    <nd ref='-178276592' />
    <nd ref='-178276593' />
  </way>
  <way id='-38587304' action='modify'>
    <nd ref='-178276729' />
    <nd ref='-178276728' />
    <nd ref='-178276726' />
    <nd ref='-178276596' />
    <nd ref='-178276734' />
    <nd ref='-178276597' />
    <nd ref='-178276731' />
    <tag k='type' v='straight' />
  </way>
  <way id='-38587305' action='modify'>
    <nd ref='-178276598' />
    <nd ref='-178276601' />
    <nd ref='-178276599' />
    <tag k='type' v='straight' />
  </way>
  <way id='-38587306' action='modify'>
    <nd ref='-178276599' />
    <nd ref='-178276600' />
    <nd ref='-178276602' />
    <nd ref='-178276603' />
    <nd ref='-178276604' />
    <nd ref='-178276605' />
    <nd ref='-178276609' />
    <nd ref='-178276606' />
    <nd ref='-178276607' />
  </way>
  <way id='-38587307' action='modify'>
    <nd ref='-178276607' />
    <nd ref='-178276610' />
    <nd ref='-178276608' />
    <tag k='type' v='straight' />
  </way>
  <way id='-38587308' action='modify'>
    <nd ref='-178276608' />
    <nd ref='-178276737' />
    <nd ref='-178276735' />
  </way>
  <way id='-38587309' action='modify'>
    <nd ref='-178276735' />
    <nd ref='-178276736' />
    <nd ref='-178276741' />
    <tag k='type' v='straight' />
  </way>
  <way id='-38587310' action='modify'>
    <nd ref='-178276611' />
    <nd ref='-178276612' />
    <nd ref='-178276614' />
    <nd ref='-178276615' />
    <nd ref='-178276616' />
    <nd ref='-178276617' />
    <nd ref='-178276618' />
  </way>
  <way id='-38587311' action='modify'>
    <nd ref='-178276618' />
    <nd ref='-178276623' />
    <nd ref='-178276752' />
    <nd ref='-178276624' />
    <nd ref='-178276774' />
    <tag k='type' v='straight' />
  </way>
  <way id='-38587312' action='modify'>
    <nd ref='-178276622' />
    <nd ref='-178276621' />
  </way>
  <way id='-38587313' action='modify'>
    <nd ref='-178276621' />
    <nd ref='-178276776' />
    <nd ref='-178276626' />
    <nd ref='-178276777' />
    <nd ref='-178276619' />
    <tag k='type' v='straight' />
  </way>
  <way id='-38587314' action='modify'>
    <nd ref='-178276619' />
    <nd ref='-178276620' />
  </way>
  <way id='-38587315' action='modify'>
    <nd ref='-178276620' />
    <nd ref='-178276628' />
    <nd ref='-178276629' />
    <nd ref='-178276778' />
    <nd ref='-178276627' />
    <tag k='type' v='straight' />
  </way>
  <way id='-38587316' action='modify'>
    <nd ref='-178276627' />
    <nd ref='-178276630' />
  </way>
  <way id='-38587317' action='modify'>
    <nd ref='-178276630' />
    <nd ref='-178276632' />
    <nd ref='-178276779' />
    <nd ref='-178276633' />
    <nd ref='-178276631' />
    <tag k='type' v='straight' />
  </way>
  <way id='-38587318' action='modify'>
    <nd ref='-178276631' />
    <nd ref='-178276634' />
  </way>
  <way id='-38587319' action='modify'>
    <nd ref='-178276634' />
    <nd ref='-178276780' />
    <nd ref='-178276637' />
    <nd ref='-178276781' />
    <nd ref='-178276782' />
    <nd ref='-178276638' />
    <nd ref='-178276783' />
    <nd ref='-178276636' />
    <tag k='type' v='straight' />
  </way>
  <way id='-38587320' action='modify'>
    <nd ref='-178276636' />
    <nd ref='-178276635' />
    <nd ref='-178276640' />
  </way>
  <way id='-38587321' action='modify'>
    <nd ref='-178276640' />
    <nd ref='-178276639' />
    <tag k='type' v='straight' />
  </way>
  <way id='-38587322' action='modify'>
    <nd ref='-178276639' />
    <nd ref='-178276785' />
    <nd ref='-178276641' />
  </way>
  <way id='-38587323' action='modify'>
    <nd ref='-178276641' />
    <nd ref='-178276642' />
    <nd ref='-178276787' />
    <tag k='type' v='straight' />
  </way>
  <way id='-38587324' action='modify'>
    <nd ref='-178276787' />
    <nd ref='-178276786' />
    <nd ref='-178276784' />
    <nd ref='-178276643' />
    <nd ref='-178276644' />
  </way>
  <way id='-38587325' action='modify'>
    <nd ref='-178276644' />
    <nd ref='-178276645' />
    <tag k='type' v='straight' />
  </way>
  <way id='-38587326' action='modify'>
    <nd ref='-178276645' />
    <nd ref='-178276646' />
    <nd ref='-178276647' />
    <nd ref='-178276649' />
  </way>
  <way id='-38587327' action='modify'>
    <nd ref='-178276649' />
    <nd ref='-178276650' />
    <nd ref='-178276651' />
    <nd ref='-178276648' />
    <tag k='type' v='straight' />
  </way>
  <way id='-38587328' action='modify'>
    <nd ref='-178276660' />
    <nd ref='-178276653' />
    <nd ref='-178276656' />
    <tag k='type' v='straight' />
  </way>
  <way id='-38587329' action='modify'>
    <nd ref='-178276657' />
    <nd ref='-178276655' />
    <nd ref='-178276654' />
    <tag k='type' v='straight' />
  </way>
  <way id='-38587330' action='modify'>
    <nd ref='-178276656' />
    <nd ref='-178276657' />
    <tag k='type' v='arc' />
  </way>
  <way id='-38587331' action='modify'>
    <nd ref='-178276656' />
    <nd ref='-178276659' />
    <tag k='type' v='straight' />
  </way>
  <way id='-38587332' action='modify'>
    <nd ref='-178276659' />
    <nd ref='-178276658' />
    <tag k='type' v='arc' />
  </way>
  <way id='-38587333' action='modify'>
    <nd ref='-178276652' />
    <nd ref='-178276660' />
    <tag k='type' v='straight' />
  </way>
  <way id='-38587334' action='modify'>
    <nd ref='-178276663' />
    <nd ref='-178276662' />
  </way>
  <way id='-38587335' action='modify'>
    <nd ref='-178276667' />
    <nd ref='-178276668' />
    <tag k='type' v='straight' />
  </way>
  <way id='-38587336' action='modify'>
    <nd ref='-178276668' />
    <nd ref='-178276669' />
  </way>
  <way id='-38587337' action='modify'>
    <nd ref='-178276669' />
    <nd ref='-178276530' />
    <tag k='type' v='straight' />
  </way>
  <way id='-38587338' action='modify'>
    <nd ref='-178276543' />
    <nd ref='-178276672' />
    <tag k='type' v='curved' />
  </way>
  <way id='-38587339' action='modify'>
    <nd ref='-178276542' />
    <nd ref='-178276544' />
    <nd ref='-178276670' />
    <tag k='type' v='straight' />
  </way>
  <way id='-38587340' action='modify'>
    <nd ref='-178276672' />
    <nd ref='-178276682' />
    <nd ref='-178276674' />
    <tag k='type' v='straight' />
  </way>
  <way id='-38587341' action='modify'>
    <nd ref='-178276674' />
    <nd ref='-178276673' />
    <tag k='type' v='arc' />
  </way>
  <way id='-38587342' action='modify'>
    <nd ref='-178276673' />
    <nd ref='-178276683' />
    <nd ref='-178276678' />
    <tag k='type' v='straight' />
  </way>
  <way id='-38587343' action='modify'>
    <nd ref='-178276678' />
    <nd ref='-178276679' />
    <tag k='type' v='arc' />
  </way>
  <way id='-38587344' action='modify'>
    <nd ref='-178276679' />
    <nd ref='-178276681' />
    <tag k='type' v='straight' />
  </way>
  <way id='-38587345' action='modify'>
    <nd ref='-178276681' />
    <nd ref='-178276680' />
    <tag k='type' v='arc' />
  </way>
  <way id='-38587346' action='modify'>
    <nd ref='-178276680' />
    <nd ref='-178276677' />
    <tag k='type' v='straight' />
  </way>
  <way id='-38587347' action='modify'>
    <nd ref='-178276677' />
    <nd ref='-178276675' />
    <tag k='type' v='curved' />
  </way>
  <way id='-38587348' action='modify'>
    <nd ref='-178276675' />
    <nd ref='-178276676' />
    <tag k='type' v='straight' />
  </way>
  <way id='-38587349' action='modify'>
    <nd ref='-178276549' />
    <nd ref='-178276684' />
    <nd ref='-178276551' />
    <nd ref='-178276552' />
  </way>
  <way id='-38587350' action='modify'>
    <nd ref='-178276554' />
    <nd ref='-178276699' />
    <nd ref='-178276555' />
  </way>
  <way id='-38587351' action='modify'>
    <nd ref='-178276685' />
    <nd ref='-178276686' />
  </way>
  <way id='-38587352' action='modify'>
    <nd ref='-178276689' />
    <nd ref='-178276691' />
  </way>
  <way id='-38587353' action='modify'>
    <nd ref='-178276687' />
    <nd ref='-178276690' />
  </way>
  <way id='-38587354' action='modify'>
    <nd ref='-178276693' />
    <nd ref='-178276692' />
  </way>
  <way id='-38587355' action='modify'>
    <nd ref='-178276694' />
    <nd ref='-178276695' />
  </way>
  <way id='-38587356' action='modify'>
    <nd ref='-178276696' />
    <nd ref='-178276698' />
    <nd ref='-178276697' />
    <tag k='type' v='straight' />
  </way>
  <way id='-38587357' action='modify'>
    <nd ref='-178276697' />
    <nd ref='-178276552' />
  </way>
  <way id='-38587358' action='modify'>
    <nd ref='-178276700' />
    <nd ref='-178276557' />
  </way>
  <way id='-38587359' action='modify'>
    <nd ref='-178276555' />
    <nd ref='-178276702' />
    <nd ref='-178276701' />
    <tag k='type' v='straight' />
  </way>
  <way id='-38587360' action='modify'>
    <nd ref='-178276709' />
    <nd ref='-178276710' />
    <nd ref='-178276716' />
    <nd ref='-178276715' />
    <nd ref='-178276714' />
    <tag k='type' v='straight' />
  </way>
  <way id='-38587361' action='modify'>
    <nd ref='-178276714' />
    <nd ref='-178276712' />
    <nd ref='-178276713' />
  </way>
  <way id='-38587362' action='modify'>
    <nd ref='-178276713' />
    <nd ref='-178276711' />
    <tag k='type' v='straight' />
  </way>
  <way id='-38587363' action='modify'>
    <nd ref='-178276722' />
    <nd ref='-178276724' />
    <tag k='type' v='straight' />
  </way>
  <way id='-38587364' action='modify'>
    <nd ref='-178276593' />
    <nd ref='-178276723' />
    <nd ref='-178276725' />
    <tag k='type' v='straight' />
  </way>
  <way id='-38587365' action='modify'>
    <nd ref='-178276724' />
    <nd ref='-178276725' />
  </way>
  <way id='-38587366' action='modify'>
    <nd ref='-178276729' />
    <nd ref='-178276727' />
  </way>
  <way id='-38587367' action='modify'>
    <nd ref='-178276725' />
    <nd ref='-178276595' />
    <nd ref='-178276729' />
    <tag k='type' v='straight' />
  </way>
  <way id='-38587368' action='modify'>
    <nd ref='-178276743' />
    <nd ref='-178276733' />
    <nd ref='-178276742' />
    <nd ref='-178276744' />
    <nd ref='-178276730' />
    <nd ref='-178276738' />
    <nd ref='-178276607' />
    <tag k='type' v='straight' />
  </way>
  <way id='-38587369' action='modify'>
    <nd ref='-178276749' />
    <nd ref='-178276743' />
  </way>
  <way id='-38587370' action='modify'>
    <nd ref='-178276731' />
    <nd ref='-178276732' />
  </way>
  <way id='-38587371' action='modify'>
    <nd ref='-178276739' />
    <nd ref='-178276740' />
    <tag k='type' v='straight' />
  </way>
  <way id='-38587372' action='modify'>
    <nd ref='-178276741' />
    <nd ref='-178276613' />
    <nd ref='-178276611' />
    <tag k='type' v='straight' />
  </way>
  <way id='-38587373' action='modify'>
    <nd ref='-178276740' />
    <nd ref='-178276743' />
  </way>
  <way id='-38587374' action='modify'>
    <nd ref='-178276731' />
    <nd ref='-178276746' />
    <nd ref='-178276747' />
    <nd ref='-178276745' />
    <tag k='type' v='straight' />
  </way>
  <way id='-38587375' action='modify'>
    <nd ref='-178276748' />
    <nd ref='-178276751' />
    <nd ref='-178276750' />
    <tag k='type' v='straight' />
  </way>
  <way id='-38587376' action='modify'>
    <nd ref='-178276732' />
    <nd ref='-178276750' />
  </way>
  <way id='-38587377' action='modify'>
    <nd ref='-178276750' />
    <nd ref='-178276749' />
    <tag k='type' v='straight' />
  </way>
  <way id='-38587378' action='modify'>
    <nd ref='-178276727' />
    <nd ref='-178276754' />
    <tag k='type' v='straight' />
  </way>
  <way id='-38587379' action='modify'>
    <nd ref='-178276754' />
    <nd ref='-178276755' />
    <tag k='type' v='arc' />
  </way>
  <way id='-38587380' action='modify'>
    <nd ref='-178276755' />
    <nd ref='-178276757' />
    <tag k='type' v='straight' />
  </way>
  <way id='-38587381' action='modify'>
    <nd ref='-178276759' />
    <nd ref='-178276761' />
    <tag k='type' v='straight' />
  </way>
  <way id='-38587382' action='modify'>
    <nd ref='-178276757' />
    <nd ref='-178276756' />
    <tag k='type' v='arc' />
  </way>
  <way id='-38587383' action='modify'>
    <nd ref='-178276756' />
    <nd ref='-178276758' />
    <tag k='type' v='straight' />
  </way>
  <way id='-38587384' action='modify'>
    <nd ref='-178276758' />
    <nd ref='-178276759' />
    <tag k='type' v='arc' />
  </way>
  <way id='-38587385' action='modify'>
    <nd ref='-178276761' />
    <nd ref='-178276760' />
    <tag k='type' v='arc' />
  </way>
  <way id='-38587386' action='modify'>
    <nd ref='-178276760' />
    <nd ref='-178276762' />
    <tag k='type' v='straight' />
  </way>
  <way id='-38587387' action='modify'>
    <nd ref='-178276762' />
    <nd ref='-178276763' />
    <tag k='type' v='arc' />
  </way>
  <way id='-38587388' action='modify'>
    <nd ref='-178276763' />
    <nd ref='-178276765' />
    <tag k='type' v='straight' />
  </way>
  <way id='-38587389' action='modify'>
    <nd ref='-178276765' />
    <nd ref='-178276764' />
  </way>
  <way id='-38587390' action='modify'>
    <nd ref='-178276764' />
    <nd ref='-178276767' />
    <tag k='type' v='straight' />
  </way>
  <way id='-38587391' action='modify'>
    <nd ref='-178276767' />
    <nd ref='-178276766' />
    <tag k='type' v='arc' />
  </way>
  <way id='-38587392' action='modify'>
    <nd ref='-178276766' />
    <nd ref='-178276769' />
    <tag k='type' v='straight' />
  </way>
  <way id='-38587393' action='modify'>
    <nd ref='-178276769' />
    <nd ref='-178276770' />
    <tag k='type' v='arc' />
  </way>
  <way id='-38587394' action='modify'>
    <nd ref='-178276770' />
    <nd ref='-178276768' />
    <nd ref='-178276773' />
    <tag k='type' v='straight' />
  </way>
  <way id='-38587395' action='modify'>
    <nd ref='-178276773' />
    <nd ref='-178276772' />
    <tag k='type' v='arc' />
  </way>
  <way id='-38587396' action='modify'>
    <nd ref='-178276772' />
    <nd ref='-178276771' />
    <tag k='type' v='straight' />
  </way>
  <way id='-38587397' action='modify'>
    <nd ref='-178276771' />
    <nd ref='-178276775' />
    <nd ref='-178276774' />
    <tag k='type' v='curved' />
  </way>
  <way id='-38587398' action='modify'>
    <nd ref='-178276753' />
    <nd ref='-178276625' />
    <nd ref='-178276622' />
    <tag k='type' v='straight' />
  </way>
  <way id='-38587399' action='modify'>
    <nd ref='-178276774' />
    <nd ref='-178276753' />
    <tag k='type' v='straight' />
  </way>
  <way id='-38587400' action='modify'>
    <nd ref='-178276791' />
    <nd ref='-178276790' />
    <nd ref='-178276825' />
    <tag k='type' v='arc' />
  </way>
  <way id='-38587402' action='modify'>
    <nd ref='-178276792' />
    <nd ref='-178276793' />
    <tag k='type' v='arc' />
  </way>
  <way id='-38587403' action='modify'>
    <nd ref='-178276793' />
    <nd ref='-178276803' />
    <nd ref='-178276791' />
    <tag k='type' v='straight' />
  </way>
  <way id='-38587404' action='modify'>
    <nd ref='-178276794' />
    <nd ref='-178276795' />
    <tag k='type' v='arc' />
  </way>
  <way id='-38587405' action='modify'>
    <nd ref='-178276795' />
    <nd ref='-178276805' />
    <nd ref='-178276810' />
    <tag k='type' v='straight' />
  </way>
  <way id='-38587406' action='modify'>
    <nd ref='-178276798' />
    <nd ref='-178276801' />
    <nd ref='-178276800' />
    <tag k='type' v='straight' />
  </way>
  <way id='-38587407' action='modify'>
    <nd ref='-178276797' />
    <nd ref='-178276796' />
  </way>
  <way id='-38587408' action='modify'>
    <nd ref='-178276796' />
    <nd ref='-178276794' />
    <tag k='type' v='straight' />
  </way>
  <way id='-38587409' action='modify'>
    <nd ref='-178276800' />
    <nd ref='-178276799' />
    <tag k='type' v='arc' />
  </way>
  <way id='-38587410' action='modify'>
    <nd ref='-178276799' />
    <nd ref='-178276804' />
    <nd ref='-178276802' />
    <nd ref='-178276797' />
    <tag k='type' v='straight' />
  </way>
  <way id='-38587411' action='modify'>
    <nd ref='-178276806' />
    <nd ref='-178276811' />
    <nd ref='-178276812' />
    <nd ref='-178276807' />
    <tag k='type' v='straight' />
  </way>
  <way id='-38587412' action='modify'>
    <nd ref='-178276810' />
    <nd ref='-178276792' />
    <tag k='type' v='straight' />
  </way>
  <way id='-38587413' action='modify'>
    <nd ref='-178276807' />
    <nd ref='-178276808' />
  </way>
  <way id='-38587414' action='modify'>
    <nd ref='-178276808' />
    <nd ref='-178276809' />
    <tag k='type' v='straight' />
  </way>
  <way id='-38587415' action='modify'>
    <nd ref='-178276809' />
    <nd ref='-178276810' />
  </way>
  <way id='-38587425' action='modify'>
    <nd ref='-178276825' />
    <nd ref='-178276827' />
    <tag k='type' v='straight' />
  </way>
  <relation id='-14489138' action='modify'>
    <member type='way' ref='-38587328' role='' />
    <member type='way' ref='-38587331' role='' />
    <member type='way' ref='-38587332' role='' />
    <member type='way' ref='-38587268' role='' />
    <member type='way' ref='-38587269' role='' />
    <member type='way' ref='-38587270' role='' />
    <member type='way' ref='-38587334' role='' />
    <member type='way' ref='-38587271' role='' />
    <member type='way' ref='-38587272' role='' />
    <member type='way' ref='-38587273' role='' />
    <member type='way' ref='-38587337' role='' />
    <member type='way' ref='-38587274' role='' />
    <member type='way' ref='-38587275' role='' />
    <member type='way' ref='-38587276' role='' />
    <member type='way' ref='-38587277' role='' />
    <member type='way' ref='-38587278' role='' />
    <member type='way' ref='-38587279' role='' />
    <member type='way' ref='-38587280' role='' />
    <member type='way' ref='-38587339' role='' />
    <member type='way' ref='-38587281' role='' />
    <member type='way' ref='-38587282' role='' />
    <member type='way' ref='-38587283' role='' />
    <member type='way' ref='-38587349' role='' />
    <member type='way' ref='-38587284' role='' />
    <member type='way' ref='-38587350' role='' />
    <member type='way' ref='-38587285' role='' />
    <member type='way' ref='-38587358' role='' />
    <member type='way' ref='-38587286' role='' />
    <member type='way' ref='-38587287' role='' />
    <member type='way' ref='-38587288' role='' />
    <member type='way' ref='-38587289' role='' />
    <member type='way' ref='-38587290' role='' />
    <member type='way' ref='-38587291' role='' />
    <member type='way' ref='-38587292' role='' />
    <member type='way' ref='-38587293' role='' />
    <member type='way' ref='-38587294' role='' />
    <member type='way' ref='-38587295' role='' />
    <member type='way' ref='-38587296' role='' />
    <member type='way' ref='-38587297' role='' />
    <member type='way' ref='-38587298' role='' />
    <member type='way' ref='-38587299' role='' />
    <member type='way' ref='-38587300' role='' />
    <member type='way' ref='-38587301' role='' />
    <member type='way' ref='-38587302' role='' />
    <member type='way' ref='-38587303' role='' />
    <member type='way' ref='-38587364' role='' />
    <member type='way' ref='-38587367' role='' />
    <member type='way' ref='-38587304' role='' />
    <member type='way' ref='-38587370' role='' />
    <member type='way' ref='-38587376' role='' />
    <member type='way' ref='-38587377' role='' />
    <member type='way' ref='-38587369' role='' />
    <member type='way' ref='-38587368' role='' />
    <member type='way' ref='-38587307' role='' />
    <member type='way' ref='-38587308' role='' />
    <member type='way' ref='-38587309' role='' />
    <member type='way' ref='-38587372' role='' />
    <member type='way' ref='-38587310' role='' />
    <member type='way' ref='-38587311' role='' />
    <member type='way' ref='-38587399' role='' />
    <member type='way' ref='-38587398' role='' />
    <member type='way' ref='-38587312' role='' />
    <member type='way' ref='-38587313' role='' />
    <member type='way' ref='-38587314' role='' />
    <member type='way' ref='-38587315' role='' />
    <member type='way' ref='-38587316' role='' />
    <member type='way' ref='-38587317' role='' />
    <member type='way' ref='-38587318' role='' />
    <member type='way' ref='-38587319' role='' />
    <member type='way' ref='-38587320' role='' />
    <member type='way' ref='-38587321' role='' />
    <member type='way' ref='-38587322' role='' />
    <member type='way' ref='-38587323' role='' />
    <member type='way' ref='-38587324' role='' />
    <member type='way' ref='-38587325' role='' />
    <member type='way' ref='-38587326' role='' />
    <member type='way' ref='-38587327' role='' />
    <tag k='key' v='d4.de.e.2200' />
    <tag k='name' v='D4 DE 2200 (E)' />
    <tag k='type' v='path' />
  </relation>
  <relation id='-14489139' action='modify'>
    <member type='way' ref='-38587335' role='' />
    <member type='way' ref='-38587336' role='' />
    <member type='way' ref='-38587337' role='' />
    <member type='way' ref='-38587274' role='' />
    <member type='way' ref='-38587275' role='' />
    <member type='way' ref='-38587276' role='' />
    <member type='way' ref='-38587277' role='' />
    <tag k='key' v='d4.de.2223' />
    <tag k='name' v='D4 DE 2223' />
    <tag k='type' v='path' />
  </relation>
  <relation id='-14489140' action='modify'>
    <member type='way' ref='-38587335' role='' />
    <member type='way' ref='-38587336' role='' />
    <member type='way' ref='-38587337' role='' />
    <member type='way' ref='-38587274' role='' />
    <member type='way' ref='-38587275' role='' />
    <member type='way' ref='-38587276' role='' />
    <member type='way' ref='-38587277' role='' />
    <tag k='key' v='d4.de.2224' />
    <tag k='name' v='D4 DE 2224' />
    <tag k='type' v='path' />
  </relation>
  <relation id='-14489141' action='modify'>
    <member type='way' ref='-38587281' role='' />
    <member type='way' ref='-38587338' role='' />
    <member type='way' ref='-38587340' role='' />
    <member type='way' ref='-38587341' role='' />
    <member type='way' ref='-38587342' role='' />
    <member type='way' ref='-38587343' role='' />
    <member type='way' ref='-38587344' role='' />
    <member type='way' ref='-38587345' role='' />
    <member type='way' ref='-38587346' role='' />
    <member type='way' ref='-38587347' role='' />
    <member type='way' ref='-38587348' role='' />
    <tag k='key' v='d4.de.2200.sin' />
    <tag k='name' v='D4 DE 2200 Sin' />
    <tag k='type' v='path' />
  </relation>
  <relation id='-14489142' action='modify'>
    <member type='way' ref='-38587356' role='' />
    <member type='way' ref='-38587357' role='' />
    <member type='way' ref='-38587284' role='' />
    <tag k='key' v='d4.de.2252' />
    <tag k='name' v='D4 DE 2252' />
    <tag k='type' v='path' />
  </relation>
  <relation id='-14489143' action='modify'>
    <member type='way' ref='-38587285' role='reverse' />
    <member type='way' ref='-38587359' role='' />
    <tag k='key' v='d4.de.2002' />
    <tag k='name' v='D4 DE 2002' />
    <tag k='type' v='path' />
  </relation>
  <relation id='-14489144' action='modify'>
    <member type='way' ref='-38587360' role='' />
    <member type='way' ref='-38587361' role='' />
    <member type='way' ref='-38587362' role='' />
    <tag k='key' v='d4.de.2100' />
    <tag k='name' v='D4 DE 2100' />
    <tag k='type' v='path' />
  </relation>
  <relation id='-14489145' action='modify'>
    <member type='way' ref='-38587363' role='' />
    <member type='way' ref='-38587365' role='' />
    <member type='way' ref='-38587367' role='' />
    <member type='way' ref='-38587304' role='' />
    <member type='way' ref='-38587370' role='' />
    <member type='way' ref='-38587376' role='' />
    <member type='way' ref='-38587377' role='' />
    <member type='way' ref='-38587369' role='' />
    <member type='way' ref='-38587368' role='' />
    <tag k='key' v='d4.de.2265' />
    <tag k='name' v='D4 DE 2265' />
    <tag k='type' v='path' />
  </relation>
  <relation id='-14489146' action='modify'>
    <member type='way' ref='-38587364' role='' />
    <member type='way' ref='-38587367' role='' />
    <member type='way' ref='-38587366' role='' />
    <member type='way' ref='-38587378' role='' />
    <member type='way' ref='-38587379' role='' />
    <member type='way' ref='-38587380' role='' />
    <member type='way' ref='-38587382' role='' />
    <member type='way' ref='-38587383' role='' />
    <member type='way' ref='-38587384' role='' />
    <member type='way' ref='-38587381' role='' />
    <member type='way' ref='-38587385' role='' />
    <member type='way' ref='-38587386' role='' />
    <member type='way' ref='-38587387' role='' />
    <member type='way' ref='-38587388' role='' />
    <member type='way' ref='-38587389' role='' />
    <member type='way' ref='-38587390' role='' />
    <member type='way' ref='-38587391' role='' />
    <member type='way' ref='-38587392' role='' />
    <member type='way' ref='-38587393' role='' />
    <member type='way' ref='-38587394' role='' />
    <member type='way' ref='-38587395' role='' />
    <member type='way' ref='-38587396' role='' />
    <member type='way' ref='-38587397' role='' />
    <member type='way' ref='-38587399' role='' />
    <tag k='key' v='d4.de.2010' />
    <tag k='name' v='D4 DE 2010' />
    <tag k='type' v='path' />
  </relation>
  <relation id='-14489147' action='modify'>
    <member type='way' ref='-38587371' role='' />
    <member type='way' ref='-38587373' role='' />
    <member type='way' ref='-38587368' role='' />
    <member type='way' ref='-38587307' role='' />
    <member type='way' ref='-38587308' role='' />
    <member type='way' ref='-38587309' role='' />
    <tag k='key' v='d4.de.e.2931' />
    <tag k='name' v='D4 DE 2931 (E)' />
    <tag k='type' v='path' />
  </relation>
  <relation id='-14489148' action='modify'>
    <member type='way' ref='-38587304' role='' />
    <member type='way' ref='-38587374' role='' />
    <tag k='key' v='d4.de.2200.gei' />
    <tag k='name' v='D4 DE 2200 Gei' />
    <tag k='type' v='path' />
  </relation>
  <relation id='-14489149' action='modify'>
    <member type='way' ref='-38587375' role='' />
    <member type='way' ref='-38587377' role='' />
    <member type='way' ref='-38587369' role='' />
    <member type='way' ref='-38587368' role='' />
    <member type='way' ref='-38587307' role='' />
    <tag k='key' v='d4.de.2000' />
    <tag k='name' v='D4 DE 2000' />
    <tag k='type' v='path' />
  </relation>
  <relation id='-14489150' action='modify'>
    <member type='way' ref='-38587406' role='' />
    <member type='way' ref='-38587409' role='' />
    <member type='way' ref='-38587410' role='' />
    <member type='way' ref='-38587407' role='' />
    <member type='way' ref='-38587408' role='' />
    <member type='way' ref='-38587404' role='' />
    <member type='way' ref='-38587405' role='' />
    <member type='way' ref='-38587412' role='' />
    <member type='way' ref='-38587402' role='' />
    <member type='way' ref='-38587403' role='' />
    <member type='way' ref='-38587400' role='' />
    <member type='way' ref='-38587425' role='' />
    <tag k='key' v='d4.de.2270' />
    <tag k='name' v='D4 DE 2270' />
    <tag k='type' v='path' />
  </relation>
  <relation id='-14489151' action='modify'>
    <member type='way' ref='-38587411' role='' />
    <member type='way' ref='-38587413' role='' />
    <member type='way' ref='-38587414' role='' />
    <member type='way' ref='-38587415' role='' />
    <member type='way' ref='-38587412' role='' />
    <tag k='key' v='d4.de.2266' />
    <tag k='name' v='D4 DE 2266' />
    <tag k='type' v='path' />
  </relation>
</osm>
